GLOBALSTAR M067 [+]     
1 32263U 07048A   24105.58208416 -.00000088  00000+0  73392-4 0  9995
2 32263  51.9718 210.0353 0001466 140.1726 326.8311 12.40641930756283
GLOBALSTAR M070 [+]     
1 32264U 07048B   24106.18439434 -.00000062  00000+0  23492-3 0  9996
2 32264  51.9774 352.3436 0000440  91.5287  85.6595 12.62289790760599
GLOBALSTAR M068 [-]     
1 32266U 07048D   24106.18041997 -.00000059  00000+0  24678-3 0  9994
2 32266  51.9868 166.9228 0000645 255.7559 139.6225 12.62784593763770
GLOBALSTAR M079 [+]     
1 37188U 10054A   24106.21207351 -.00000073  00000+0  17093-3 0  9994
2 37188  52.0068   2.6108 0000938  79.2634  94.1488 12.62268311623083
GLOBALSTAR M074 [+]     
1 37189U 10054B   24105.90135727 -.00000076  00000+0  15367-3 0  9992
2 37189  52.0042   2.9465 0000643  78.9014   1.2578 12.62266858622976
GLOBALSTAR M076 [+]     
1 37190U 10054C   24105.92762507 -.00000070  00000+0  18790-3 0  9995
2 37190  52.0057   2.9975 0000993 108.0585 332.2290 12.62276586622692
GLOBALSTAR M077 [+]     
1 37191U 10054D   24105.92002545 -.00000078  00000+0  14140-3 0  9998
2 37191  52.0081 319.7564 0000747  97.8760   6.9435 12.62271515623065
